0 SCOUT G-1 DEB
1 19181U 88033G   21015.04928892  .00000098  00000-0  18158-3 0  9996
2 19181  89.8736 306.4590 0250577 159.1529 323.1147 13.21321533576135
0 THORAD DELTA 1 DEB
1 19183U 74089FD  21014.12918041  .00000445  00000-0  10971-2 0  9997
2 19183 103.5492 324.3055 0198896 313.0833  55.1799 13.23155380518384
0 OPS 4682 DEB
1 19185U 65027AR  21014.85610609 -.00000008  00000-0 -52401-4 0  9993
2 19185  90.2924 317.1740 0034219 240.1916 173.9293 12.96556990693528
0 COSMOS 1950
1 19195U 88046A   21015.07405102 -.00000004  00000-0  95138-4 0  9994
2 19195  73.5974 238.6020 0023342 148.9555 340.2675 12.40891808478315
0 SL-14 R/B
1 19196U 88046B   21015.32899875 -.00000015  00000-0  13100-4 0  9998
2 19196  73.5970 221.9520 0020138 135.1136  37.8921 12.41397376478994
0 COSMOS 1953
1 19210U 88050A   21015.52667538  .00001041  00000-0  69055-4 0  9990
2 19210  82.5156 203.9489 0014227 110.9280 249.3471 15.06140163774717
0 SL-14 R/B
1 19211U 88050B   21015.54913862  .00000089  00000-0  78833-5 0  9993
2 19211  82.5252  58.6232 0023152 123.7054 349.8261 14.83094413760701
0 METEOSAT 3
1 19215U 88051A   21015.33822420 -.00000161  00000-0  00000+0 0  9991
2 19215  15.7524 356.5826 0006958 351.9502  20.2201  0.96947933104217
0 PAS 1
1 19217U 88051C   21015.10669965  .00000076  00000-0  00000+0 0  9995
2 19217  13.7151  19.2996 0006038 332.9645 211.1962  0.99389251128509
0 ARIANE 44LP DEB
1 19219U 88051E   21015.21708567 -.00000266  00000-0  65208-4 0  9999
2 19219   9.9229 162.0062 6791635  28.3010 355.7588  2.87395163299840
0 COSMOS 886 DEB
1 19221U 76126CB  21014.31586758 -.00000253  00000-0 -19171-3 0  9992
2 19221  65.8320 243.0662 0871036 260.0604  90.1122 12.72006093314189
0 NOVA 2
1 19223U 88052A   21015.22466149  .00000069  00000-0  14529-3 0  9992
2 19223  89.9689  82.3878 0028618 272.8783 145.3535 13.22713769572771
0 SL-14 DEB
1 19226U 78100V   21001.12781564  .00000274  00000-0  32899-2 0  9990
2 19226  82.5357  49.0267 0035142 269.5825 118.3317 12.00059327427031
0 SL-14 DEB
1 19227U 78100W   21015.10366323 -.00017105  00000-0 -63697-2 0  9999
2 19227  81.8778  65.8404 0373147 181.5456 178.4595 14.00023643165176
0 SL-14 DEB
1 19228U 78100X   21014.85318640 -.00000153  00000-0 -60647-3 0  9998
2 19228  82.4601 266.8839 0059272 141.7451 336.5436 12.92158044487369
0 SL-14 DEB
1 19229U 78100Y   21015.54819000  .00000458  00000-0  97286-3 0  9997
2 19229  82.3163  64.7149 0185614  69.0061  46.9121 13.22415340920083
0 SL-14 DEB
1 19230U 78100Z   21015.53104612 -.00000010  00000-0 -23851-3 0  9997
2 19230  82.5338  46.3489 0014226 246.5248 233.5378 11.98637818429587
0 SL-14 DEB
1 19232U 78100AB  21015.23349441  .00000048  00000-0  69162-3 0  9991
2 19232  82.3317 274.9869 0190983  86.8737  38.1489 11.67457680392234
0 SL-14 DEB
1 19233U 78100AC  21015.32169330  .00000140  00000-0  15019-2 0  9993
2 19233  82.5582 348.4762 0046592 321.3244 165.0943 12.06082397436581
0 SL-14 DEB
1 19234U 78100AD  21015.53796182  .00000096  00000-0  13706-2 0  9999
2 19234  82.4275 204.9629 0128249 259.4059 155.8276 11.79768563405771
0 SL-8 DEB
1 19235U 70102G   21015.51981198  .00000050  00000-0  60228-4 0  9998
2 19235  74.0185 210.0371 0005223 255.9386 134.0104 13.89345071811353
0 THORAD AGENA D DEB
1 19238U 70025PT  21015.54215209  .00000298  00000-0  36810-3 0  9994
2 19238  99.7836 121.0347 0047166 163.4152 208.7099 13.73351404668221
0 OPS 4682 DEB
1 19242U 65027AS  21014.68965522  .00000529  00000-0  17136-2 0  9995
2 19242  90.2667 339.8100 0028421 322.6346 211.6032 13.00731394379901
0 COSMOS 886 DEB
1 19244U 76126CA  21015.53949281  .00000011  00000-0  15463-3 0  9996
2 19244  66.0487 285.3655 0730357 333.1048 205.5100 12.56056440279008
0 P/L 153 DEB
1 19245U 67053K   21014.66106758  .00000293  00000-0  16707-3 0  9997
2 19245  69.9587  74.6411 0008149 275.4099 256.9161 14.19062003749161
0 THORAD AGENA D DEB
1 19250U 70025PU  21014.75714925  .00000090  00000-0  14286-3 0  9992
2 19250  99.4589 120.0895 0180960 228.5819 287.5468 13.67502301613746
0 COSMOS 1954
1 19256U 88053A   21015.50051031  .00000024  00000-0  17956-4 0  9999
2 19256  74.0473  63.7045 0016721 209.0581 150.9642 14.34032392703498
0 SL-8 R/B
1 19257U 88053B   21015.36324715 -.00000012  00000-0  48997-5 0  9994
2 19257  74.0501 331.3321 0021801 258.4842 215.4624 14.37498969706731
0 SL-8 DEB
1 19260U 88053C   21015.37370858  .00000214  00000-0  60815-4 0  9993
2 19260  74.0617 125.1378 0006297  68.6066 359.4783 14.51250090714297
0 SL-8 DEB
1 19261U 88053D   21014.78088642  .00000234  00000-0  66388-4 0  9998
2 19261  74.0543 131.5421 0009794 113.9808  39.0311 14.50750246713541
0 OKEAN 1
1 19274U 88056A   21014.90649312  .00000796  00000-0  51763-4 0  9990
2 19274  82.5053 318.8572 0011735 163.2589 196.9028 15.06592145750592
0 SL-14 R/B
1 19275U 88056B   21015.52146219  .00000063  00000-0  48596-5 0  9996
2 19275  82.5153 186.4832 0019195 213.5210 146.4791 14.82773920757128
0 THORAD AGENA D DEB
1 19290U 70025PV  21014.53148187  .00000081  00000-0  17466-3 0  9996
2 19290  99.7654 301.4256 0026694 150.8218  23.3269 13.57435311769815
0 DELTA 1 DEB
1 19291U 73086HD  21015.45289157  .00000057  00000-0  65833-3 0  9996
2 19291 101.6188   1.2776 0042012   3.4375 150.1714 12.50390669486056
0 THOR ABLESTAR DEB
1 19293U 61015MA  21014.60765707  .00000149  00000-0  44527-3 0  9992
2 19293  66.9850 127.4559 0334508  27.8324 348.6236 13.11669268568039
0 COSMOS 252 DEB
1 19294U 68097EE  21014.15184539 -.00000355  00000-0 -29924-3 0  9993
2 19294  62.2273 286.4174 0657840 220.8394 134.1503 13.03201524546732
0 SL-14 DEB
1 19295U 78100AE  21014.35156235  .00000655  00000-0  51303-2 0  9990
2 19295  81.9953 157.4078 0504217 286.1656  94.6378 12.05957932434425
0 WESTFORD NEEDLES
1 19299U 63014EL  21015.46593348 -.00000992  00000-0 -31419+0 0  9994
2 19299  87.1036 286.5168 0852666 188.8279 169.6698  8.68262071 56870
0 THOR ABLESTAR DEB
1 19302U 61015MC  21015.48339477 -.00000025  00000-0  32600-4 0  9995
2 19302  66.8464  91.0940 0060215 333.6147  26.1877 14.06088336676251
0 DELTA 1 DEB
1 19306U 76077FJ  21014.44765786 -.00000010  00000-0  31511-3 0  9997
2 19306 101.9929 193.1368 0143670 306.5983  80.8467 12.15298999434737
0 COSMOS 252 DEB
1 19309U 68097ES  21015.00401049 -.00000017  00000-0  39106-4 0  9991
2 19309  62.3794 242.9910 0904524 230.2548 121.5325 13.01382412327556
0 DELTA 1 DEB
1 19311U 75004HP  21014.38068196  .00000171  00000-0  73858-4 0  9994
2 19311  97.6474 174.1008 0148598 118.3282 243.2982 14.28025723704549
0 TANSEI 3 DEB
1 19314U 77012L   21015.43457373 -.00000169  00000-0 -16107-3 0  9996
2 19314  65.3722 144.9683 1855601  93.4972 287.8785 10.84403242982394
0 DELTA 1 DEB
1 19316U 76077FK  21015.19258074 -.00000198  00000-0 -17378-2 0  9990
2 19316 102.1732 263.7208 0210157 238.0581 276.0854 12.03569314575541
0 COSMOS 249 DEB
1 19317U 68091DH  21014.44084503  .00000005  00000-0  42863-4 0  9993
2 19317  62.8447  78.0434 0762548 348.8630   9.6294 13.37149254582165
0 COSMOS 1959
1 19324U 88062A   21015.46528884  .00000044  00000-0  29676-4 0  9999
2 19324  82.9516 150.1452 0032977 251.3612 175.8511 13.76114680631812
0 SL-8 R/B
1 19325U 88062B   21015.45455635  .00000011  00000-0 -49148-5 0  9994
2 19325  82.9515 130.5127 0034291 167.8935 261.7132 13.77625730595674
0 INSAT 1C
1 19330U 88063A   21014.96703472 -.00000071  00000-0  00000+0 0  9995
2 19330  13.8866 343.1335 0006510  72.0865 117.2357  1.00314255100369
0 EUTE 1-F5 (ECS 5)
1 19331U 88063B   21014.60050883 -.00000109  00000-0  00000+0 0  9990
2 19331  15.5233   1.0749 0010363  84.5862 276.2818  0.98165104 94961
0 METEOR 3-2
1 19336U 88064A   21015.50807402 -.00000060  00000-0 -18804-3 0  9995
2 19336  82.5445 291.6530 0018143 112.2467  62.5106 13.17193726561381
0 SL-14 R/B
1 19337U 88064B   21015.50819071  .00000002  00000-0 -26038-4 0  9995
2 19337  82.5483 294.0586 0016302 142.7236  30.9960 13.17230926561470
0 COSMOS 1961
1 19344U 88066A   21014.96712196 -.00000065  00000-0  00000+0 0  9999
2 19344  13.8780 344.8049 0006107  61.4822 126.5402  1.00269605119212
0 SL-12 R/B(2)
1 19347U 88066D   21014.59675769 -.00000157  00000-0  00000+0 0  9997
2 19347  14.4727 346.6059 0034316  89.7017 265.5165  0.98660296116423
0 THORAD AGENA D DEB
1 19351U 70025PW  21015.51855230  .00000146  00000-0  21910-3 0  9998
2 19351 100.0341 101.8319 0029918 181.8357 190.9537 13.70414232659499
0 OPS 4682 DEB
1 19355U 65027AT  21014.77684927 -.00000139  00000-0 -50352-3 0  9994
2 19355  90.2952 310.8295 0034092 217.1151 205.9144 12.97186809546007
0 DELTA 1 DEB
1 19359U 78026HM  21014.68944237  .00000407  00000-0  13933-3 0  9994
2 19359  98.4765 354.0187 0022695  50.1850 123.2316 14.41144106216226
0 DELTA 1 DEB
1 19360U 73086HE  21014.61853241  .00000242  00000-0  17819-2 0  9997
2 19360 101.8975  57.5327 0035598 325.6765 186.3097 12.54455638633565
0 COSMOS 249 DEB
1 19362U 68091DJ  21015.05873886  .00000347  00000-0  85352-4 0  9990
2 19362  62.7808   9.3151 0575201 125.6985 239.9009 13.97838896641341
0 THORAD AGENA D DEB
1 19363U 70025PY  21015.47524412  .00000022  00000-0  91651-4 0  9994
2 19363 100.0123  83.4061 0004010 307.5899  65.8250 13.61017871773737
0 DELTA 1 DEB
1 19365U 75004HQ  21014.68326867  .00000173  00000-0  76143-4 0  9990
2 19365  97.6715 157.2487 0144932 186.2383 173.7001 14.27692629696748
0 COSMOS 397 DEB *
1 19367U 71015DS  21014.60270424 -.00000105  00000-0 -17995-4 0  9996
2 19367  65.7136 324.2263 0181016 296.7203 238.5296 13.80944401649327
0 THORAD AGENA D DEB
1 19391U 70025PZ  21010.26949223  .00000729  00000-0  54109-3 0  9998
2 19391  98.8515 285.9251 0156162  16.1854 137.2707 13.92529050642318
0 TIROS 8 DEB
1 19396U 63054E   21014.71352095  .00000089  00000-0  30447-4 0  9995
2 19396  58.4745   6.2324 0016992 236.0130 123.9304 14.92339162737562
0 GORIZONT 16
1 19397U 88071A   21014.65384262  .00000024  00000-0  00000-0 0  9993
2 19397  13.9449 344.9029 0016445  33.5821 159.0918  0.99985130118449
